ZHONGXING-2E            
1 49062U 21071A   26194.29515509 -.00000294  00000+0  00000+0 0  9994
2 49062   0.0673 232.7250 0001145 274.8214 347.9508  1.00271182 18309
TJS-7                   
1 49115U 21077A   26194.33809416 -.00000126  00000+0  00000+0 0  9991
2 49115   0.2913 264.0844 0003029 107.6413 301.6944  1.00269406  9814
CHINASAT 9B             
1 49125U 21080A   26194.29593510 -.00000315  00000+0  00000+0 0  9996
2 49125   0.0285  87.0722 0002123  60.7031 351.3450  1.00269383 17910
SHIJIAN-21 (SJ-21)      
1 49330U 21094A   26194.32943696 -.00000355  00000+0  00000+0 0  9991
2 49330   5.1725  61.0182 0051704 168.9553 307.6820  1.00278769  5622
SES-17                  
1 49332U 21095A   26193.83481431 -.00000273  00000+0  00000+0 0  9992
2 49332   0.0240  46.6489 0000755  72.0192  45.4760  1.00268378 18116
SYRACUSE 4A             
1 49333U 21095B   26194.28484171  .00000000  00000+0  00000+0 0  9994
2 49333   0.0269  55.8699 0001472  51.2182 332.1295  1.00269727 18206
QZS-1R (MICHIBIKI-1R)   
1 49336U 21096A   26193.57683811 -.00000300  00000+0  00000+0 0  9995
2 49336  37.5114  79.2075 0755009 272.2000 278.6576  1.00245962 17263
ZHONGXING-1D            
1 49505U 21114A   26194.30165513 -.00000339  00000+0  00000+0 0  9992
2 49505   0.0491 229.3798 0000572  32.9376 267.6443  1.00269311 17084
STPSAT-6                
1 49817U 21118A   26194.20829097 -.00000048  00000+0  00000+0 0  9992
2 49817   0.3856  85.1151 0000992 237.6399 291.5422  1.00269860 16838
EXPRESS AMU-7           
1 50001U 21123A   26194.30460181 -.00000246  00000+0  00000+0 0  9991
2 50001   0.0303 283.7308 0000227 341.1816 280.9171  1.00270446 16807
EXPRESS AMU-3           
1 50002U 21123B   26193.90642920  .00000000  00000+0  00000+0 0  9997
2 50002   0.0159  12.3102 0000111 257.9220  89.7665  1.00269338  7294
TIANLIAN 2-02           
1 50005U 21124A   26194.31651866 -.00000018  00000+0  00000+0 0  9996
2 50005   0.8657  85.7134 0001578 162.5827 327.8097  1.00270369 16885
TURKSAT 5B              
1 50212U 21126A   26193.99904978  .00000145  00000+0  00000+0 0  9996
2 50212   0.0701 338.6004 0002509  12.8831 341.0561  1.00271952 16557
INMARSAT 6-F1           
1 50319U 21128A   26194.22336485 -.00000174  00000+0  00000+0 0  9998
2 50319   0.0151 332.4055 0000209 257.5806 225.2787  1.00272319 16525
SHIYAN-12 01 (SY-12 01) 
1 50321U 21129A   26193.71335147  .00000147  00000+0  00000+0 0  9998
2 50321   3.7378  79.5665 0002600 284.5398 222.5476  1.00049826 16753
SHIYAN-12 02 (SY-12 02) 
1 50322U 21129B   26193.79816434 -.00000362  00000+0  00000+0 0  9990
2 50322   3.7371  79.5652 0003031  70.5376 176.5041  1.00478416 16758
TJS-9                   
1 50574U 21135A   26194.30304179 -.00000301  00000+0  00000+0 0  9995
2 50574   0.0426 106.6647 0002252 321.6474 109.1994  1.00273161 16699
GOES 18                 
1 51850U 22021A   26194.03484329  .00000095  00000+0  00000+0 0  9993
2 51850   0.0164 127.5086 0000603  67.6267 331.3316  1.00273053  6854
ZHONGXING-6D            
1 52255U 22038A   26193.84498869 -.00000354  00000+0  00000+0 0  9992
2 52255   0.0309 242.6704 0000559 286.3576 190.9625  1.00273271 15678
NILESAT 301             
1 52817U 22061A   26194.27444167 -.00000061  00000+0  00000+0 0  9997
2 52817   0.0466 351.8446 0003518  86.8461 304.2938  1.00269202 14996
CMS-02 (GSAT-24)        
1 52903U 22067A   26194.14975397 -.00000167  00000+0  00000+0 0  9996
2 52903   0.0183  97.3032 0000653 247.3991  83.2376  1.00271644 14869
MEASAT 3D               
1 52904U 22067B   26194.29385509 -.00000244  00000+0  00000+0 0  9999
2 52904   0.0487 306.6889 0000621  66.2592 115.5182  1.00271790 14915
SES-22                  
1 52933U 22071A   26194.26903376  .00000102  00000+0  00000+0 0  9993
2 52933   0.0161   0.2209 0000774 104.4354 144.3202  1.00270634  7785
WFOV (USA 332)          
1 52940U 22073A   26194.22819289 -.00000368  00000+0  00000+0 0  9993
2 52940   3.7751  78.1980 0001545 214.6571 199.6928  1.00268184 14637
TIANLIAN 2-03           
1 53100U 22078A   26194.27799501  .00000069  00000+0  00000+0 0  9993
2 53100   0.7356  77.4601 0000880   4.9220 319.4839  1.00273536 14807
SBIRS GEO-6 (USA 336)   
1 53355U 22092A   26194.30338846 -.00000290  00000+0  00000+0 0  9993
2 53355   3.2148 317.9147 0001627 152.3124  69.1780  1.00270682 14492
EUTELSAT KONNECT VHTS   
1 53765U 22110A   26194.27634834  .00000014  00000+0  00000+0 0  9994
2 53765   0.0588  98.3690 0002659 345.7853 309.1729  1.00268721  7095
ZHONGXING-1E            
1 53813U 22112A   26194.22892135 -.00000152  00000+0  00000+0 0  9999
2 53813   0.0678 230.6788 0000935  51.1103 173.1186  1.00272689 14114
SES-20                  
1 53960U 22123A   26193.89899248 -.00000102  00000+0  00000+0 0  9993
2 53960   0.0182  65.5273 0001716  27.3100  58.4778  1.00269346 13792
SES-21                  
1 53961U 22123B   26193.60834084  .00000000  00000+0  00000+0 0  9996
2 53961   0.0382  33.2221 0001309  82.4376 262.9264  1.00274690  7462
GALAXY 33 (G-33)        
1 54026U 22128A   26194.27584255  .00000076  00000+0  00000+0 0  9993
2 54026   0.0139  20.7800 0001758  99.2510 137.4242  1.00271487 14004
GALAXY 34 (G-34)        
1 54027U 22128B   26193.96516197  .00000000  00000+0  00000+0 0  9996
2 54027   0.0243  20.8122 0001453 119.7956   8.7058  1.00273632 14170
