OBJECT_NAME,OBJECT_ID,EPOCH,MEAN_MOTION,ECCENTRICITY,INCLINATION,RA_OF_ASC_NODE,ARG_OF_PERICENTER,MEAN_ANOMALY,EPHEMERIS_TYPE,CLASSIFICATION_TYPE,NORAD_CAT_ID,ELEMENT_SET_NO,REV_AT_EPOCH,BSTAR,MEAN_MOTION_DOT,MEAN_MOTION_DDOT
ZHONGXING-2E,2021-071A,2026-07-13T07:05:01.399776,1.00271182,.0001145,0.0673,232.7250,274.8214,347.9508,0,U,49062,999,1830,0,-.294E-5,0
TJS-7,2021-077A,2026-07-13T08:06:51.335424,1.00269406,.00030293,0.2913,264.0844,107.6413,301.6944,0,U,49115,999,981,0,-.126E-5,0
CHINASAT 9B,2021-080A,2026-07-13T07:06:08.792640,1.00269383,.00021232,0.0285,87.0722,60.7031,351.3450,0,U,49125,999,1791,0,-.315E-5,0
SHIJIAN-21 (SJ-21),2021-094A,2026-07-13T07:54:23.353344,1.00278769,.00517041,5.1725,61.0182,168.9553,307.6820,0,U,49330,999,562,0,-.355E-5,0
SES-17,2021-095A,2026-07-12T20:02:07.956384,1.00268378,.00007556,0.0240,46.6489,72.0192,45.4760,0,U,49332,999,1811,0,-.273E-5,0
SYRACUSE 4A,2021-095B,2026-07-13T06:50:10.323744,1.00269727,.00014726,0.0269,55.8699,51.2182,332.1295,0,U,49333,999,1820,0,0,0
QZS-1R (MICHIBIKI-1R),2021-096A,2026-07-12T13:50:38.812704,1.00245962,.07550099,37.5114,79.2075,272.2000,278.6576,0,U,49336,999,1726,0,-.3E-5,0
ZHONGXING-1D,2021-114A,2026-07-13T07:14:23.003232,1.00269311,.00005727,0.0491,229.3798,32.9376,267.6443,0,U,49505,999,1708,0,-.339E-5,0
STPSAT-6,2021-118A,2026-07-13T04:59:56.339808,1.00269860,.00009928,0.3856,85.1151,237.6399,291.5422,0,U,49817,999,1683,0,-.48E-6,0
EXPRESS AMU-7,2021-123A,2026-07-13T07:18:37.596384,1.00270446,.00002278,0.0303,283.7308,341.1816,280.9171,0,U,50001,999,1680,0,-.246E-5,0
EXPRESS AMU-3,2021-123B,2026-07-12T21:45:15.482880,1.00269338,.00001118,0.0159,12.3102,257.9220,89.7665,0,U,50002,999,729,0,0,0
TIANLIAN 2-02,2021-124A,2026-07-13T07:35:47.212224,1.00270369,.00015785,0.8657,85.7134,162.5827,327.8097,0,U,50005,999,1688,0,-.18E-6,0
TURKSAT 5B,2021-126A,2026-07-12T23:58:37.900992,1.00271952,.00025094,0.0701,338.6004,12.8831,341.0561,0,U,50212,999,1655,0,.145E-5,0
INMARSAT 6-F1,2021-128A,2026-07-13T05:21:38.723040,1.00272319,.00002096,0.0151,332.4055,257.5806,225.2787,0,U,50319,999,1652,0,-.174E-5,0
SHIYAN-12 01 (SY-12 01),2021-129A,2026-07-12T17:07:13.567008,1.00049826,.00026,3.7378,79.5665,284.5398,222.5476,0,U,50321,999,1675,0,.147E-5,0
SHIYAN-12 02 (SY-12 02),2021-129B,2026-07-12T19:09:21.398976,1.00478416,.0003031,3.7371,79.5652,70.5376,176.5041,0,U,50322,999,1675,0,-.362E-5,0
TJS-9,2021-135A,2026-07-13T07:16:22.810656,1.00273161,.00022523,0.0426,106.6647,321.6474,109.1994,0,U,50574,999,1669,0,-.301E-5,0
GOES 18,2022-021A,2026-07-13T00:50:10.460256,1.00273053,.00006034,0.0164,127.5086,67.6267,331.3316,0,U,51850,999,685,0,.95E-6,0
ZHONGXING-6D,2022-038A,2026-07-12T20:16:47.022816,1.00273271,.0000559,0.0309,242.6704,286.3576,190.9625,0,U,52255,999,1567,0,-.354E-5,0
NILESAT 301,2022-061A,2026-07-13T06:35:11.760288,1.00269202,.00035188,0.0466,351.8446,86.8461,304.2938,0,U,52817,999,1499,0,-.61E-6,0
CMS-02 (GSAT-24),2022-067A,2026-07-13T03:35:38.743008,1.00271644,.00006532,0.0183,97.3032,247.3991,83.2376,0,U,52903,999,1486,0,-.167E-5,0
MEASAT 3D,2022-067B,2026-07-13T07:03:09.079776,1.00271790,.00006218,0.0487,306.6889,66.2592,115.5182,0,U,52904,999,1491,0,-.244E-5,0
SES-22,2022-071A,2026-07-13T06:27:24.516864,1.00270634,.00007747,0.0161,0.2209,104.4354,144.3202,0,U,52933,999,778,0,.102E-5,0
WFOV (USA 332),2022-073A,2026-07-13T05:28:35.865696,1.00268184,.00015455,3.7751,78.1980,214.6571,199.6928,0,U,52940,999,1463,0,-.368E-5,0
TIANLIAN 2-03,2022-078A,2026-07-13T06:40:18.768864,1.00273536,.00008806,0.7356,77.4601,4.9220,319.4839,0,U,53100,999,1480,0,.69E-6,0
SBIRS GEO-6 (USA 336),2022-092A,2026-07-13T07:16:52.762944,1.00270682,.0001627,3.2148,317.9147,152.3124,69.1780,0,U,53355,999,1449,0,-.29E-5,0
EUTELSAT KONNECT VHTS,2022-110A,2026-07-13T06:37:56.496576,1.00268721,.00026598,0.0588,98.3690,345.7853,309.1729,0,U,53765,999,709,0,.14E-6,0
ZHONGXING-1E,2022-112A,2026-07-13T05:29:38.804640,1.00272689,.0000935,0.0678,230.6788,51.1103,173.1186,0,U,53813,999,1411,0,-.152E-5,0
SES-20,2022-123A,2026-07-12T21:34:32.950272,1.00269346,.0001716,0.0182,65.5273,27.3100,58.4778,0,U,53960,999,1379,0,-.102E-5,0
SES-21,2022-123B,2026-07-12T14:36:00.648576,1.00274690,.00013092,0.0382,33.2221,82.4376,262.9264,0,U,53961,999,746,0,0,0
GALAXY 33 (G-33),2022-128A,2026-07-13T06:37:12.796320,1.00271487,.00017585,0.0139,20.7800,99.2510,137.4242,0,U,54026,999,1400,0,.76E-6,0
GALAXY 34 (G-34),2022-128B,2026-07-12T23:09:49.994208,1.00273632,.00014531,0.0243,20.8122,119.7956,8.7058,0,U,54027,999,1417,0,0,0
